CCSDS_OMM_VERS = 2.0
CREATION_DATE  = 
ORIGINATOR     = 

OBJECT_NAME    = SL-16 R/B
OBJECT_ID      = 1998-043G
CENTER_NAME    = EARTH
REF_FRAME      = TEME
TIME_SYSTEM    = UTC
MEAN_ELEMENT_THEORY = SGP/SGP4

EPOCH          = 2026-01-09T02:13:00.303168
MEAN_MOTION    = 14.26033355
ECCENTRICITY   = .000972
INCLINATION    = 98.8164
RA_OF_ASC_NODE = 322.0689
ARG_OF_PERICENTER = 181.3504
MEAN_ANOMALY   = 178.7651

EPHEMERIS_TYPE = 0
CLASSIFICATION_TYPE = U
NORAD_CAT_ID   = 25400
ELEMENT_SET_NO = 999
REV_AT_EPOCH   = 43049
BSTAR          = .51435E-4
MEAN_MOTION_DOT = .78E-6
MEAN_MOTION_DDOT = 0

CCSDS_OMM_VERS = 2.0
CREATION_DATE  = 
ORIGINATOR     = 

OBJECT_NAME    = SL-16 R/B
OBJECT_ID      = 1998-045B
CENTER_NAME    = EARTH
REF_FRAME      = TEME
TIME_SYSTEM    = UTC
MEAN_ELEMENT_THEORY = SGP/SGP4

EPOCH          = 2026-01-09T04:05:39.153120
MEAN_MOTION    = 14.16180463
ECCENTRICITY   = .0005364
INCLINATION    = 71.0123
RA_OF_ASC_NODE = 306.7402
ARG_OF_PERICENTER = 128.5029
MEAN_ANOMALY   = 231.6576

EPHEMERIS_TYPE = 0
CLASSIFICATION_TYPE = U
NORAD_CAT_ID   = 25407
ELEMENT_SET_NO = 999
REV_AT_EPOCH   = 41867
BSTAR          = -.67929E-4
MEAN_MOTION_DOT = -.182E-5
MEAN_MOTION_DDOT = 0

CCSDS_OMM_VERS = 2.0
CREATION_DATE  = 
ORIGINATOR     = 

OBJECT_NAME    = ISS (ZARYA)
OBJECT_ID      = 1998-067A
CENTER_NAME    = EARTH
REF_FRAME      = TEME
TIME_SYSTEM    = UTC
MEAN_ELEMENT_THEORY = SGP/SGP4

EPOCH          = 2026-01-08T21:17:24.741024
MEAN_MOTION    = 15.49180370
ECCENTRICITY   = .0007663
INCLINATION    = 51.6333
RA_OF_ASC_NODE = 8.0698
ARG_OF_PERICENTER = 356.5554
MEAN_ANOMALY   = 3.5381

EPHEMERIS_TYPE = 0
CLASSIFICATION_TYPE = U
NORAD_CAT_ID   = 25544
ELEMENT_SET_NO = 999
REV_AT_EPOCH   = 54706
BSTAR          = .15864E-3
MEAN_MOTION_DOT = .8359E-4
MEAN_MOTION_DDOT = 0

CCSDS_OMM_VERS = 2.0
CREATION_DATE  = 
ORIGINATOR     = 

OBJECT_NAME    = CZ-4B R/B
OBJECT_ID      = 1999-025C
CENTER_NAME    = EARTH
REF_FRAME      = TEME
TIME_SYSTEM    = UTC
MEAN_ELEMENT_THEORY = SGP/SGP4

EPOCH          = 2026-01-09T02:55:45.062976
MEAN_MOTION    = 14.18251224
ECCENTRICITY   = .0037593
INCLINATION    = 98.6730
RA_OF_ASC_NODE = 54.7844
ARG_OF_PERICENTER = 154.9064
MEAN_ANOMALY   = 264.8743

EPHEMERIS_TYPE = 0
CLASSIFICATION_TYPE = U
NORAD_CAT_ID   = 25732
ELEMENT_SET_NO = 999
REV_AT_EPOCH   = 37972
BSTAR          = .39529E-4
MEAN_MOTION_DOT = .39E-6
MEAN_MOTION_DDOT = 0

CCSDS_OMM_VERS = 2.0
CREATION_DATE  = 
ORIGINATOR     = 

OBJECT_NAME    = OKEAN-O
OBJECT_ID      = 1999-039A
CENTER_NAME    = EARTH
REF_FRAME      = TEME
TIME_SYSTEM    = UTC
MEAN_ELEMENT_THEORY = SGP/SGP4

EPOCH          = 2026-01-09T04:01:21.664704
MEAN_MOTION    = 14.80217961
ECCENTRICITY   = .0001544
INCLINATION    = 97.9560
RA_OF_ASC_NODE = 69.6271
ARG_OF_PERICENTER = 111.5507
MEAN_ANOMALY   = 248.5869

EPHEMERIS_TYPE = 0
CLASSIFICATION_TYPE = U
NORAD_CAT_ID   = 25860
ELEMENT_SET_NO = 999
REV_AT_EPOCH   = 42558
BSTAR          = .10336E-3
MEAN_MOTION_DOT = .734E-5
MEAN_MOTION_DDOT = 0

CCSDS_OMM_VERS = 2.0
CREATION_DATE  = 
ORIGINATOR     = 

OBJECT_NAME    = SL-16 R/B
OBJECT_ID      = 1999-039B
CENTER_NAME    = EARTH
REF_FRAME      = TEME
TIME_SYSTEM    = UTC
MEAN_ELEMENT_THEORY = SGP/SGP4

EPOCH          = 2026-01-09T03:16:26.541120
MEAN_MOTION    = 14.81634105
ECCENTRICITY   = .0016162
INCLINATION    = 98.0085
RA_OF_ASC_NODE = 68.2843
ARG_OF_PERICENTER = 90.8685
MEAN_ANOMALY   = 269.4379

EPHEMERIS_TYPE = 0
CLASSIFICATION_TYPE = U
NORAD_CAT_ID   = 25861
ELEMENT_SET_NO = 999
REV_AT_EPOCH   = 42804
BSTAR          = .8039E-4
MEAN_MOTION_DOT = .579E-5
MEAN_MOTION_DDOT = 0

CCSDS_OMM_VERS = 2.0
CREATION_DATE  = 
ORIGINATOR     = 

OBJECT_NAME    = DELTA 2 R/B
OBJECT_ID      = 1999-041E
CENTER_NAME    = EARTH
REF_FRAME      = TEME
TIME_SYSTEM    = UTC
MEAN_ELEMENT_THEORY = SGP/SGP4

EPOCH          = 2026-01-09T04:28:10.691904
MEAN_MOTION    = 14.11517197
ECCENTRICITY   = .0503876
INCLINATION    = 51.7600
RA_OF_ASC_NODE = 178.8747
ARG_OF_PERICENTER = 172.6636
MEAN_ANOMALY   = 188.2036

EPHEMERIS_TYPE = 0
CLASSIFICATION_TYPE = U
NORAD_CAT_ID   = 25876
ELEMENT_SET_NO = 999
REV_AT_EPOCH   = 35462
BSTAR          = .43156E-3
MEAN_MOTION_DOT = .2448E-4
MEAN_MOTION_DDOT = 0

CCSDS_OMM_VERS = 2.0
CREATION_DATE  = 
ORIGINATOR     = 

OBJECT_NAME    = HELIOS 1B
OBJECT_ID      = 1999-064A
CENTER_NAME    = EARTH
REF_FRAME      = TEME
TIME_SYSTEM    = UTC
MEAN_ELEMENT_THEORY = SGP/SGP4

EPOCH          = 2026-01-09T04:25:26.353920
MEAN_MOTION    = 14.87418390
ECCENTRICITY   = .0000336
INCLINATION    = 98.1745
RA_OF_ASC_NODE = 269.6653
ARG_OF_PERICENTER = 102.2354
MEAN_ANOMALY   = 257.8898

EPHEMERIS_TYPE = 0
CLASSIFICATION_TYPE = U
NORAD_CAT_ID   = 25977
ELEMENT_SET_NO = 999
REV_AT_EPOCH   = 67641
BSTAR          = .21352E-3
MEAN_MOTION_DOT = .1873E-4
MEAN_MOTION_DDOT = 0

CCSDS_OMM_VERS = 2.0
CREATION_DATE  = 
ORIGINATOR     = 

OBJECT_NAME    = TERRA
OBJECT_ID      = 1999-068A
CENTER_NAME    = EARTH
REF_FRAME      = TEME
TIME_SYSTEM    = UTC
MEAN_ELEMENT_THEORY = SGP/SGP4

EPOCH          = 2026-01-09T04:50:46.193856
MEAN_MOTION    = 14.60939345
ECCENTRICITY   = .0002741
INCLINATION    = 97.9709
RA_OF_ASC_NODE = 64.8732
ARG_OF_PERICENTER = 37.5697
MEAN_ANOMALY   = 38.8829

EPHEMERIS_TYPE = 0
CLASSIFICATION_TYPE = U
NORAD_CAT_ID   = 25994
ELEMENT_SET_NO = 999
REV_AT_EPOCH   = 38639
BSTAR          = .11893E-3
MEAN_MOTION_DOT = .538E-5
MEAN_MOTION_DDOT = 0

CCSDS_OMM_VERS = 2.0
CREATION_DATE  = 
ORIGINATOR     = 

OBJECT_NAME    = SL-16 R/B
OBJECT_ID      = 2000-006B
CENTER_NAME    = EARTH
REF_FRAME      = TEME
TIME_SYSTEM    = UTC
MEAN_ELEMENT_THEORY = SGP/SGP4

EPOCH          = 2026-01-09T00:42:03.826080
MEAN_MOTION    = 14.15815720
ECCENTRICITY   = .0018991
INCLINATION    = 71.0012
RA_OF_ASC_NODE = 223.2794
ARG_OF_PERICENTER = 272.1629
MEAN_ANOMALY   = 87.7319

EPHEMERIS_TYPE = 0
CLASSIFICATION_TYPE = U
NORAD_CAT_ID   = 26070
ELEMENT_SET_NO = 999
REV_AT_EPOCH   = 34011
BSTAR          = -.39525E-4
MEAN_MOTION_DOT = -.126E-5
MEAN_MOTION_DDOT = 0

CCSDS_OMM_VERS = 2.0
CREATION_DATE  = 
ORIGINATOR     = 

OBJECT_NAME    = TITAN 4B R/B
OBJECT_ID      = 2000-047B
CENTER_NAME    = EARTH
REF_FRAME      = TEME
TIME_SYSTEM    = UTC
MEAN_ELEMENT_THEORY = SGP/SGP4

EPOCH          = 2026-01-09T02:52:32.250144
MEAN_MOTION    = 15.09011397
ECCENTRICITY   = .0037257
INCLINATION    = 67.9877
RA_OF_ASC_NODE = 207.9460
ARG_OF_PERICENTER = 110.5789
MEAN_ANOMALY   = 249.9363

EPHEMERIS_TYPE = 0
CLASSIFICATION_TYPE = U
NORAD_CAT_ID   = 26474
ELEMENT_SET_NO = 999
REV_AT_EPOCH   = 38392
BSTAR          = .21682E-3
MEAN_MOTION_DOT = .3357E-4
MEAN_MOTION_DDOT = 0

CCSDS_OMM_VERS = 2.0
CREATION_DATE  = 
ORIGINATOR     = 

OBJECT_NAME    = ENVISAT
OBJECT_ID      = 2002-009A
CENTER_NAME    = EARTH
REF_FRAME      = TEME
TIME_SYSTEM    = UTC
MEAN_ELEMENT_THEORY = SGP/SGP4

EPOCH          = 2026-01-05T21:29:39.358752
MEAN_MOTION    = 14.39010190
ECCENTRICITY   = .00010782
INCLINATION    = 98.3632
RA_OF_ASC_NODE = 321.0279
ARG_OF_PERICENTER = 90.4272
MEAN_ANOMALY   = 337.3404

EPHEMERIS_TYPE = 0
CLASSIFICATION_TYPE = U
NORAD_CAT_ID   = 27386
ELEMENT_SET_NO = 999
REV_AT_EPOCH   = 25014
BSTAR          = .76294626E-4
MEAN_MOTION_DOT = .193E-5
MEAN_MOTION_DDOT = 0

