SL-16 R/B               
1 25400U 98043G   26009.09236462  .00000078  00000+0  51435-4 0  9990
2 25400  98.8164 322.0689 0009720 181.3504 178.7651 14.26033355430496
SL-16 R/B               
1 25407U 98045B   26009.17059205 -.00000182  00000+0 -67929-4 0  9999
2 25407  71.0123 306.7402 0005364 128.5029 231.6576 14.16180463418671
ISS (ZARYA)             
1 25544U 98067A   26008.88709191  .00008359  00000+0  15864-3 0  9990
2 25544  51.6333   8.0698 0007663 356.5554   3.5381 15.49180370547069
CZ-4B R/B               
1 25732U 99025C   26009.12204934  .00000039  00000+0  39529-4 0  9999
2 25732  98.6730  54.7844 0037593 154.9064 264.8743 14.18251224379724
OKEAN-O                 
1 25860U 99039A   26009.16761186  .00000734  00000+0  10336-3 0  9993
2 25860  97.9560  69.6271 0001544 111.5507 248.5869 14.80217961425589
SL-16 R/B               
1 25861U 99039B   26009.13641830  .00000579  00000+0  80390-4 0  9999
2 25861  98.0085  68.2843 0016162  90.8685 269.4379 14.81634105428048
DELTA 2 R/B             
1 25876U 99041E   26009.18623486  .00002448  00000+0  43156-3 0  9995
2 25876  51.7600 178.8747 0503876 172.6636 188.2036 14.11517197354626
HELIOS 1B               
1 25977U 99064A   26009.18433280  .00001873  00000+0  21352-3 0  9998
2 25977  98.1745 269.6653 0000336 102.2354 257.8898 14.87418390676418
TERRA                   
1 25994U 99068A   26009.20192354  .00000538  00000+0  11893-3 0  9994
2 25994  97.9709  64.8732 0002741  37.5697  38.8829 14.60939345386394
SL-16 R/B               
1 26070U 00006B   26009.02921095 -.00000126  00000+0 -39525-4 0  9994
2 26070  71.0012 223.2794 0018991 272.1629  87.7319 14.15815720340112
TITAN 4B R/B            
1 26474U 00047B   26009.11981771  .00003357  00000+0  21682-3 0  9995
2 26474  67.9877 207.9460 0037257 110.5789 249.9363 15.09011397383929
ENVISAT                 
1 27386U 02009A   26005.89559443  .00000193  00000+0  76295-4 0  9992
2 27386  98.3632 321.0279 0001078  90.4272 337.3404 14.39010190250147
